AII-BRAVO               
1 48270U 21034C   26068.69561509  .00006142  00000+0  46527-3 0  9993
2 48270  97.5758 125.8704 0005372 233.3237 126.7495 15.02621336264679
STARLINK-5685           
1 55477U 23015AE  26068.06308580  .00000058  00000+0  19378-4 0  9995
2 55477  43.0051 316.9093 0001279 266.0300  94.0396 15.02535586170807
