[{"OBJECT_NAME":"AII-BRAVO","OBJECT_ID":"2021-034C","EPOCH":"2026-03-09T16:41:41.144640","MEAN_MOTION":15.02621336,"ECCENTRICITY":0.00053718,"INCLINATION":97.5758,"RA_OF_ASC_NODE":125.8704,"ARG_OF_PERICENTER":233.3237,"MEAN_ANOMALY":126.7495,"EPHEMERIS_TYPE":0,"CLASSIFICATION_TYPE":"U","NORAD_CAT_ID":48270,"ELEMENT_SET_NO":999,"REV_AT_EPOCH":26467,"BSTAR":0.00046526558,"MEAN_MOTION_DOT":6.142e-5,"MEAN_MOTION_DDOT":0},{"OBJECT_NAME":"STARLINK-5685","OBJECT_ID":"2023-015AE","EPOCH":"2026-03-09T01:30:50.613120","MEAN_MOTION":15.02535586,"ECCENTRICITY":0.00012798,"INCLINATION":43.0051,"RA_OF_ASC_NODE":316.9093,"ARG_OF_PERICENTER":266.03,"MEAN_ANOMALY":94.0396,"EPHEMERIS_TYPE":0,"CLASSIFICATION_TYPE":"U","NORAD_CAT_ID":55477,"ELEMENT_SET_NO":999,"REV_AT_EPOCH":17080,"BSTAR":1.9378457e-5,"MEAN_MOTION_DOT":5.8e-7,"MEAN_MOTION_DDOT":0}]
